GLOBALSTAR M045         
1 25676U 99019A   25205.43079454 -.00000081  00000+0  11387-3 0  9996
2 25676  51.9939 199.1171 0000372 299.5245 215.5469 12.27064399197968
GLOBALSTAR M019         
1 25677U 99019B   25205.63857889 -.00000039  00000+0  53027-3 0  9995
2 25677  51.9900 331.5265 0001599  67.1677 306.2262 12.13874980189693
GLOBALSTAR M044         
1 25678U 99019C   25205.53971816 -.00000114  00000+0 -42891-3 0  9994
2 25678  51.9976 287.8376 0006488 115.3614 257.7295 11.90254187175777
GLOBALSTAR M042         
1 25679U 99019D   25205.59363465 -.00000059  00000+0  31259-3 0  9999
2 25679  52.0031 305.3572 0002807  28.6634 344.7477 12.22084532189837
GLOBALSTAR M025         
1 25770U 99031A   25205.60309058 -.00000046  00000+0  67000-3 0  9994
2 25770  51.9823  72.5944 0001108 197.3776 174.4668 11.22561296485910
GLOBALSTAR M049         
1 25771U 99031B   25205.47006090 -.00000058  00000+0  25334-3 0  9997
2 25771  51.9875 109.5409 0003421  63.3286 296.7861 11.12117286121570
GLOBALSTAR M047         
1 25772U 99031C   25205.41512398 -.00000069  00000+0  16106-4 0  9995
2 25772  51.9833 103.0777 0016725 328.9725  31.0092 11.31929078475323
GLOBALSTAR M052         
1 25773U 99031D   25205.32843028 -.00000089  00000+0 -79023-3 0  9992
2 25773  51.9824 218.0137 0002905 238.8257 133.7509 11.15060124482652
